[
    {
        "Altitude(m)": 607897.6064815407,
        "Argument of Periapsis(deg)": 0.0,
        "Eccentricity": 0.0,
        "Inclination(deg)": 60.0,
        "Latitude(deg)": -14.292888547877855,
        "Longitude(deg)": 116.6187483947453,
        "Mean Anomaly(deg)": -16.363600000000037,
        "RAAN(deg)": 225.0,
        "Satellite Name": "Test1 1011",
        "Satellite Number": 1011,
        "Semi-Major Axis(m)": 6980739.136638005,
        "Time(s)": 0
    },
    {
        "Altitude(m)": 607750.8080708211,
        "Argument of Periapsis(deg)": 0.00010418945913296404,
        "Eccentricity": 0.0,
        "Inclination(deg)": 60.0,
        "Latitude(deg)": -13.758730079831178,
        "Longitude(deg)": 116.90581752685446,
        "Mean Anomaly(deg)": -15.743493854538185,
        "RAAN(deg)": 224.99957995086024,
        "Satellite Name": "Test1 1011",
        "Satellite Number": 1011,
        "Semi-Major Axis(m)": 6980739.136638005,
        "Time(s)": 10
    },
    {
        "Altitude(m)": 607606.533945734,
        "Argument of Periapsis(deg)": 0.0002083789182659281,
        "Eccentricity": 0.0,
        "Inclination(deg)": 60.0,
        "Latitude(deg)": -13.224096865249873,
        "Longitude(deg)": 117.1914102630421,
        "Mean Anomaly(deg)": -15.123387709076358,
        "RAAN(deg)": 224.9991599017205,
        "Satellite Name": "Test1 1011",
        "Satellite Number": 1011,
        "Semi-Major Axis(m)": 6980739.136638005,
        "Time(s)": 20
    },
    {
        "Altitude(m)": 607464.8284782765,
        "Argument of Periapsis(deg)": 0.00031256837739889213,
        "Eccentricity": 0.0,
        "Inclination(deg)": 60.0,
        "Latitude(deg)": -12.68900920865594,
        "Longitude(deg)": 117.47559128259651,
        "Mean Anomaly(deg)": -14.503281563614502,
        "RAAN(deg)": 224.99873985258074,
        "Satellite Name": "Test1 1011",
        "Satellite Number": 1011,
        "Semi-Major Axis(m)": 6980739.136638005,
        "Time(s)": 30
    },
    {
        "Altitude(m)": 607325.7347633642,
        "Argument of Periapsis(deg)": 0.0004167578365318562,
        "Eccentricity": 0.0,
        "Inclination(deg)": 60.0,
        "Latitude(deg)": -12.153487142026783,
        "Longitude(deg)": 117.75842492215806,
        "Mean Anomaly(deg)": -13.883175418152776,
        "RAAN(deg)": 224.99831980344103,
        "Satellite Name": "Test1 1011",
        "Satellite Number": 1011,
        "Semi-Major Axis(m)": 6980739.136638005,
        "Time(s)": 40
    },
    {
        "Altitude(m)": 607189.2946004987,
        "Argument of Periapsis(deg)": 0.0005209472956648203,
        "Eccentricity": 0.0,
        "Inclination(deg)": 60.0,
        "Latitude(deg)": -11.617550438735456,
        "Longitude(deg)": 118.03997420725325,
        "Mean Anomaly(deg)": -13.263069272690924,
        "RAAN(deg)": 224.99789975430127,
        "Satellite Name": "Test1 1011",
        "Satellite Number": 1011,
        "Semi-Major Axis(m)": 6980739.136638005,
        "Time(s)": 50
    },
    {
        "Altitude(m)": 607055.5484760999,
        "Argument of Periapsis(deg)": 0.0006251367547977843,
        "Eccentricity": 0.0,
        "Inclination(deg)": 60.0,
        "Latitude(deg)": -11.081218627137638,
        "Longitude(deg)": 118.32030139602485,
        "Mean Anomaly(deg)": -12.642963127229097,
        "RAAN(deg)": 224.99747970516154,
        "Satellite Name": "Test1 1011",
        "Satellite Number": 1011,
        "Semi-Major Axis(m)": 6980739.136638005,
        "Time(s)": 60
    },
    {
        "Altitude(m)": 606924.5355464169,
        "Argument of Periapsis(deg)": 0.0007293262139307483,
        "Eccentricity": 0.0,
        "Inclination(deg)": 60.0,
        "Latitude(deg)": -10.544511003821022,
        "Longitude(deg)": 118.59946852231464,
        "Mean Anomaly(deg)": -12.022856981767244,
        "RAAN(deg)": 224.99705965602178,
        "Satellite Name": "Test1 1011",
        "Satellite Number": 1011,
        "Semi-Major Axis(m)": 6980739.136638005,
        "Time(s)": 70
    },
    {
        "Altitude(m)": 606796.2936211714,
        "Argument of Periapsis(deg)": 0.0008335156730637124,
        "Eccentricity": 0.0,
        "Inclination(deg)": 60.0,
        "Latitude(deg)": -10.007446646536177,
        "Longitude(deg)": 118.87753642525519,
        "Mean Anomaly(deg)": -11.402750836305417,
        "RAAN(deg)": 224.99663960688207,
        "Satellite Name": "Test1 1011",
        "Satellite Number": 1011,
        "Semi-Major Axis(m)": 6980739.136638005,
        "Time(s)": 80
    },
    {
        "Altitude(m)": 606670.8591477448,
        "Argument of Periapsis(deg)": 0.0009377051321966765,
        "Eccentricity": 0.0,
        "Inclination(deg)": 60.0,
        "Latitude(deg)": -9.470044426828027,
        "Longitude(deg)": 119.15456529114411,
        "Mean Anomaly(deg)": -10.782644690843563,
        "RAAN(deg)": 224.9962195577423,
        "Satellite Name": "Test1 1011",
        "Satellite Number": 1011,
        "Semi-Major Axis(m)": 6980739.136638005,
        "Time(s)": 90
    },
    {
        "Altitude(m)": 606548.2671961497,
        "Argument of Periapsis(deg)": 0.0010418945913296407,
        "Eccentricity": 0.0,
        "Inclination(deg)": 60.0,
        "Latitude(deg)": -8.93232302238473,
        "Longitude(deg)": 119.4306151947586,
        "Mean Anomaly(deg)": -10.162538545381736,
        "RAAN(deg)": 224.99579950860257,
        "Satellite Name": "Test1 1011",
        "Satellite Number": 1011,
        "Semi-Major Axis(m)": 6980739.136638005,
        "Time(s)": 100
    },
    {
        "Altitude(m)": 606428.5514445718,
        "Argument of Periapsis(deg)": 0.0011460840504626045,
        "Eccentricity": 0.0,
        "Inclination(deg)": 60.0,
        "Latitude(deg)": -8.394300929119664,
        "Longitude(deg)": 119.70574512726542,
        "Mean Anomaly(deg)": -9.542432399919882,
        "RAAN(deg)": 224.9953794594628,
        "Satellite Name": "Test1 1011",
        "Satellite Number": 1011,
        "Semi-Major Axis(m)": 6980739.136638005,
        "Time(s)": 110
    },
    {
        "Altitude(m)": 606311.7441656596,
        "Argument of Periapsis(deg)": 0.0012502735095955685,
        "Eccentricity": 0.0,
        "Inclination(deg)": 60.0,
        "Latitude(deg)": -7.855996473005636,
        "Longitude(deg)": 119.98001353650224,
        "Mean Anomaly(deg)": -8.922326254458055,
        "RAAN(deg)": 224.9949594103231,
        "Satellite Name": "Test1 1011",
        "Satellite Number": 1011,
        "Semi-Major Axis(m)": 6980739.136638005,
        "Time(s)": 120
    },
    {
        "Altitude(m)": 606197.8762134684,
        "Argument of Periapsis(deg)": 0.0013544629687285324,
        "Eccentricity": 0.0,
        "Inclination(deg)": 60.0,
        "Latitude(deg)": -7.317427821676052,
        "Longitude(deg)": 120.2534788667861,
        "Mean Anomaly(deg)": -8.3022201089962,
        "RAAN(deg)": 224.99453936118334,
        "Satellite Name": "Test1 1011",
        "Satellite Number": 1011,
        "Semi-Major Axis(m)": 6980739.136638005,
        "Time(s)": 130
    },
    {
        "Altitude(m)": 606086.9770110986,
        "Argument of Periapsis(deg)": 0.0014586524278614966,
        "Eccentricity": 0.0,
        "Inclination(deg)": 60.0,
        "Latitude(deg)": -6.77861299580848,
        "Longitude(deg)": 120.52619858540649,
        "Mean Anomaly(deg)": -7.682113963534373,
        "RAAN(deg)": 224.9941193120436,
        "Satellite Name": "Test1 1011",
        "Satellite Number": 1011,
        "Semi-Major Axis(m)": 6980739.136638005,
        "Time(s)": 140
    },
    {
        "Altitude(m)": 605979.0745390602,
        "Argument of Periapsis(deg)": 0.0015628418869944607,
        "Eccentricity": 0.0,
        "Inclination(deg)": 60.0,
        "Latitude(deg)": -6.239569880307675,
        "Longitude(deg)": 120.79822972157667,
        "Mean Anomaly(deg)": -7.062007818072623,
        "RAAN(deg)": 224.99369926290385,
        "Satellite Name": "Test1 1011",
        "Satellite Number": 1011,
        "Semi-Major Axis(m)": 6980739.136638005,
        "Time(s)": 150
    },
    {
        "Altitude(m)": 605874.1953243229,
        "Argument of Periapsis(deg)": 0.0016670313461274247,
        "Eccentricity": 0.0,
        "Inclination(deg)": 60.0,
        "Latitude(deg)": -5.700316235302588,
        "Longitude(deg)": 121.06962940500182,
        "Mean Anomaly(deg)": -6.441901672610693,
        "RAAN(deg)": 224.99327921376414,
        "Satellite Name": "Test1 1011",
        "Satellite Number": 1011,
        "Semi-Major Axis(m)": 6980739.136638005,
        "Time(s)": 160
    },
    {
        "Altitude(m)": 605772.3644300792,
        "Argument of Periapsis(deg)": 0.0017712208052603888,
        "Eccentricity": 0.0,
        "Inclination(deg)": 60.0,
        "Latitude(deg)": -5.1608697069721385,
        "Longitude(deg)": 121.34045389121692,
        "Mean Anomaly(deg)": -5.821795527148942,
        "RAAN(deg)": 224.9928591646244,
        "Satellite Name": "Test1 1011",
        "Satellite Number": 1011,
        "Semi-Major Axis(m)": 6980739.136638005,
        "Time(s)": 170
    },
    {
        "Altitude(m)": 605673.6054462333,
        "Argument of Periapsis(deg)": 0.001875410264393353,
        "Eccentricity": 0.0,
        "Inclination(deg)": 60.0,
        "Latitude(deg)": -4.62124783821411,
        "Longitude(deg)": 121.61075909947391,
        "Mean Anomaly(deg)": -5.201689381687115,
        "RAAN(deg)": 224.99243911548464,
        "Satellite Name": "Test1 1011",
        "Satellite Number": 1011,
        "Semi-Major Axis(m)": 6980739.136638005,
        "Time(s)": 180
    },
    {
        "Altitude(m)": 605577.9404806279,
        "Argument of Periapsis(deg)": 0.0019795997235263173,
        "Eccentricity": 0.0,
        "Inclination(deg)": 60.0,
        "Latitude(deg)": -4.081468079174068,
        "Longitude(deg)": 121.88060115033032,
        "Mean Anomaly(deg)": -4.581583236225262,
        "RAAN(deg)": 224.99201906634488,
        "Satellite Name": "Test1 1011",
        "Satellite Number": 1011,
        "Semi-Major Axis(m)": 6980739.136638005,
        "Time(s)": 190
    }
]